[
  {
    "code": "EG",
    "emoji": "ðŸ‡ªðŸ‡¬",
    "unicode": "U+1F1EA U+1F1EC",
    "name": "Ù…ØµØ±",
    "title": "flag for Egypt",
    "dialCode": "+20",
    "lang": "ar"
  },
  {
    "code": "US",
    "emoji": "ðŸ‡ºðŸ‡¸",
    "unicode": "U+1F1FA U+1F1F8",
    "name": "United States",
    "title": "flag for United States",
    "dialCode": "+1",
    "lang": "en"
  },
  {
    "code": "AE",
    "emoji": "ðŸ‡¦ðŸ‡ª",
    "unicode": "U+1F1E6 U+1F1EA",
    "name": "Ø§Ù„Ø§Ù…Ø§Ø±Ø§Øª Ø§Ù„Ø¹Ø±Ø¨ÙŠØ© Ø§Ù„Ù…ØªØ­Ø¯Ø©",
    "title": "flag for United Arab Emirates",
    "dialCode": "+971",
    "lang": "ar"
  },
  {
    "code": "SA",
    "emoji": "ðŸ‡¸ðŸ‡¦",
    "unicode": "U+1F1F8 U+1F1E6",
    "name": "Ø§Ù„Ø³Ø¹ÙˆØ¯ÙŠØ©",
    "title": "flag for Saudi Arabia",
    "dialCode": "+966",
    "lang": "ar"
  },
  {
    "code": "AU",
    "emoji": "ðŸ‡¦ðŸ‡º",
    "unicode": "U+1F1E6 U+1F1FA",
    "name": "Australia",
    "title": "flag for Australia",
    "dialCode": "+61",
    "lang": "en"
  },
  {
    "code": "BR",
    "emoji": "ðŸ‡§ðŸ‡·",
    "unicode": "U+1F1E7 U+1F1F7",
    "name": "Brazil",
    "title": "flag for Brazil",
    "dialCode": "+55",
    "lang": "en"
  },
  {
    "code": "CA",
    "emoji": "ðŸ‡¨ðŸ‡¦",
    "unicode": "U+1F1E8 U+1F1E6",
    "name": "Canada",
    "title": "flag for Canada",
    "dialCode": "+1",
    "lang": "en"
  },
  {
    "code": "DE",
    "emoji": "ðŸ‡©ðŸ‡ª",
    "unicode": "U+1F1E9 U+1F1EA",
    "name": "Germany",
    "title": "flag for Germany",
    "dialCode": "+49",
    "lang": "en"
  }
]